NORAD_CAT_ID,OBJECT_NAME,OBJECT_TYPE,EPOCH,MEAN_MOTION,ECCENTRICITY,INCLINATION,RA_OF_ASC_NODE,ARG_OF_PERICENTER,MEAN_ANOMALY,BSTAR,MEAN_MOTION_DOT,MEAN_MOTION_DDOT,TLE_LINE0,TLE_LINE1,TLE_LINE2,SEMIMAJOR_AXIS,PERIOD,APOGEE,PERIGEE,DECAYED
52460.0,STARLINK-3865,PAYLOAD,2022-07-31 14:00:01,15.0886307,0.0002284,53.2137,211.8459,54.107,96.0857,-0.0010584,-0.00017105,0.0,0 STARLINK-3865,1 52460U 22049K   22212.58334491 -.00017105  00000-0 -10584-2 0  9996,2 52460  53.2137 211.8459 0002284  54.1070  96.0857 15.08863070  1300,6917.81,95.436,541.255,538.095,0.0
52460.0,STARLINK-3865,PAYLOAD,2022-07-31 22:00:00,15.088491,0.0002117,53.2141,210.348,59.7368,102.0735,-0.00010056,-1.889e-05,0.0,0 STARLINK-3865,1 52460U 22049K   22212.91667824 -.00001889  00000-0 -10056-3 0  9999,2 52460  53.2141 210.3480 0002117  59.7368 102.0735 15.08849100  1300,6917.853,95.437,541.182,538.253,0.0
52460.0,STARLINK-3865,PAYLOAD,2022-08-01 14:00:01,15.08840543,0.0002186999999999,53.2139,207.3564,54.2577,130.7398,-0.0015613,-0.00025052,0.0,0 STARLINK-3865,1 52460U 22049K   22213.58334491 -.00025052  00000-0 -15613-2 0  9995,2 52460  53.2139 207.3564 0002187  54.2577 130.7398 15.08840543  1300,6917.879,95.438,541.257,538.231,0.0
52460.0,STARLINK-3865,PAYLOAD,2022-08-01 22:00:00,15.08813469,0.000206,53.2142,205.8588,60.3864,136.1968,0.0018809,0.00029752,0.0,0 STARLINK-3865,1 52460U 22049K   22213.91667824  .00029752  00000-0  18809-2 0  9990,2 52460  53.2142 205.8588 0002060  60.3864 136.1968 15.08813469  1300,6917.9609999999975,95.439,541.252,538.401,0.0
52460.0,STARLINK-3865,PAYLOAD,2022-08-02 14:00:01,15.08844439,0.0002195,53.2138,202.8673,56.3214,163.4164,-0.0020109,-0.00032154,0.0,0 STARLINK-3865,1 52460U 22049K   22214.58334491 -.00032154  00000-0 -20109-2 0  9993,2 52460  53.2138 202.8673 0002195  56.3214 163.4164 15.08844439 13866,6917.8669999999975,95.437,541.25,538.2130000000002,0.0
52460.0,STARLINK-3865,PAYLOAD,2022-08-03 06:00:00,15.08830911,0.0002275999999999,53.2138,199.8751,57.9635,184.9496,-0.0005426,-8.912e-05,0.0,0 STARLINK-3865,1 52460U 22049K   22215.25001157 -.00008912  00000-0 -54260-3 0  9999,2 52460  53.2138 199.8751 0002276  57.9635 184.9496 15.08830911 13969,6917.908,95.438,541.3480000000002,538.1990000000002,0.0
52460.0,STARLINK-3865,PAYLOAD,2022-08-03 14:00:01,15.08850108,0.0002233,53.2136,198.3781,57.955,196.5361,-0.002248,-0.00035899,0.0,0 STARLINK-3865,1 52460U 22049K   22215.58334491 -.00035899  00000-0 -22480-2 0  9997,2 52460  53.2136 198.3781 0002233  57.9550 196.5361 15.08850108  1308,6917.849,95.437,541.259,538.17,0.0
52460.0,STARLINK-3865,PAYLOAD,2022-08-03 22:00:01,15.08825486,0.0002190999999999,53.2136,196.8805,63.7753,202.3735,0.0017125,0.00027061,0.0,0 STARLINK-3865,1 52460U 22049K   22215.91668981  .00027061  00000-0  17125-2 0  9998,2 52460  53.2136 196.8805 0002191  63.7753 202.3735 15.08825486  1303,6917.925,95.438,541.305,538.274,0.0
52460.0,STARLINK-3865,PAYLOAD,2022-08-04 06:00:00,15.08834758,0.0002358,53.2136,195.3859,59.002,218.6769,-8.4465e-05,-1.632e-05,0.0,0 STARLINK-3865,1 52460U 22049K   22216.25001157 -.00001632  00000-0 -84465-4 0  9993,2 52460  53.2136 195.3859 0002358  59.0020 218.6769 15.08834758 14129,6917.896,95.438,541.393,538.13,0.0
52460.0,STARLINK-3865,PAYLOAD,2022-08-04 14:00:01,15.08857173,0.0002299999999999,53.2135,193.8888,58.886,230.3764,-0.0023501,-0.00037515,0.0,0 STARLINK-3865,1 52460U 22049K   22216.58334491 -.00037515  00000-0 -23501-2 0  9990,2 52460  53.2135 193.8888 0002300  58.8860 230.3764 15.08857173  1307,6917.828,95.436,541.284,538.102,0.0
52460.0,STARLINK-3865,PAYLOAD,2022-08-04 22:00:00,15.08834094,0.0002289,53.2136,192.3912,64.4716,236.3923,0.0016477,0.00026029,0.0,0 STARLINK-3865,1 52460U 22049K   22216.91667824  .00026029  00000-0  16477-2 0  9996,2 52460  53.2136 192.3912 0002289  64.4716 236.3923 15.08834094  1309,6917.898,95.438,541.347,538.18,0.0
52460.0,STARLINK-3865,PAYLOAD,2022-08-05 06:00:02,15.08840722,0.0002463,53.2136,190.8966,59.7136,252.8165,0.00024335,3.587e-05,0.0,0 STARLINK-3865,1 52460U 22049K   22217.25002315  .00003587  00000-0  24335-3 0  9999,2 52460  53.2136 190.8966 0002463  59.7136 252.8165 15.08840722 14274,6917.878000000002,95.438,541.447,538.039,0.0
52460.0,STARLINK-3865,PAYLOAD,2022-08-05 14:00:01,15.08866503,0.000239,53.2135,189.3993,59.9846,264.1402,-0.0022693,-0.00036251,0.0,0 STARLINK-3865,1 52460U 22049K   22217.58335648 -.00036251  00000-0 -22693-2 0  9993,2 52460  53.2135 189.3993 0002390  59.9846 264.1402 15.08866503  1300,6917.799,95.436,541.318,538.011,0.0
52460.0,STARLINK-3865,PAYLOAD,2022-08-05 22:00:00,15.08856991,0.0002345,53.2137,187.9019,64.8809,270.7925,-0.00011076,-2.052e-05,0.0,0 STARLINK-3865,1 52460U 22049K   22217.91667824 -.00002052  00000-0 -11076-3 0  9990,2 52460  53.2137 187.9019 0002345  64.8809 270.7925 15.08856991  1302,6917.828,95.436,541.316,538.071,0.0
52460.0,STARLINK-3865,PAYLOAD,2022-08-06 14:00:01,15.08849319,0.0002378,53.2137,184.9098,60.1816,298.6929,-0.0021462,-0.00034293,0.0,0 STARLINK-3865,1 52460U 22049K   22218.58334491 -.00034293  00000-0 -21462-2 0  9996,2 52460  53.2137 184.9098 0002378  60.1816 298.6929 15.08849319 14470,6917.852,95.437,541.362,538.072,0.0
52460.0,STARLINK-3865,PAYLOAD,2022-08-06 21:57:16,15.08837323,0.0002393,53.2146,183.4214,64.2768,295.8471,-5.6805e-05,-1.192e-05,0.0,0 STARLINK-3865,1 52460U 22049K   22218.91477816 -.00001192  00000-0 -56805-4 0  9995,2 52460  53.2146 183.4214 0002393  64.2768 295.8471 15.08837323 14363,6917.889,95.438,541.409,538.0980000000002,0.0
52460.0,STARLINK-3865,PAYLOAD,2022-08-07 04:18:49,15.08842144,0.0002186999999999,53.2153,182.2303,69.745,290.3777,-3.9628e-05,-9.19e-06,0.0,0 STARLINK-3865,1 52460U 22049K   22219.17973388 -.00000919  00000-0 -39628-4 0  9999,2 52460  53.2153 182.2303 0002187  69.7450 290.3777 15.08842144 14564,6917.874,95.437,541.252,538.226,0.0
52460.0,STARLINK-3865,PAYLOAD,2022-08-07 14:00:01,15.08860035,0.0002409,53.2139,180.4202,62.1613,331.4956,-0.0021171,-0.00033844,0.0,0 STARLINK-3865,1 52460U 22049K   22219.58334491 -.00033844  00000-0 -21171-2 0  9995,2 52460  53.2139 180.4202 0002409  62.1613 331.4956 15.08860035  1304,6917.819,95.436,541.351,538.018,0.0
52460.0,STARLINK-3865,PAYLOAD,2022-08-07 21:48:02,15.08848758,0.0002302,53.2157,178.9604,66.6123,293.5111,-3.152e-05,-7.9e-06,0.0,0 STARLINK-3865,1 52460U 22049K   22219.90836761 -.00000790  00000-0 -31520-4 0  9993,2 52460  53.2157 178.9604 0002302  66.6123 293.5111 15.08848758 14515,6917.854,95.437,541.311,538.126,0.0
52460.0,STARLINK-3865,PAYLOAD,2022-08-08 06:00:00,15.0882405,0.0002419,53.2141,177.4285,61.06100000000001,355.8148,0.0015012,0.00023674,0.0,0 STARLINK-3865,1 52460U 22049K   22220.25001157  .00023674  00000-0  15012-2 0  9996,2 52460  53.2141 177.4285 0002419  61.0610 355.8148 15.08824050 14720,6917.929,95.439,541.4680000000002,538.121,0.0
52460.0,STARLINK-3865,PAYLOAD,2022-08-08 14:00:01,15.0885431,0.0002298,53.214,175.9307,63.7549,4.7728,-0.0010956,-0.0001769,0.0,0 STARLINK-3865,1 52460U 22049K   22220.58335648 -.00017690  00000-0 -10956-2 0  9992,2 52460  53.2140 175.9307 0002298  63.7549   4.7728 15.08854310  1308,6917.837,95.437,541.2909999999998,538.112,0.0
52460.0,STARLINK-3865,PAYLOAD,2022-08-08 22:00:00,15.088722,0.0002222,53.2142,174.43400000000003,67.4466,12.6235,-0.0024119,-0.00038504,0.0,0 STARLINK-3865,1 52460U 22049K   22220.91667824 -.00038504  00000-0 -24119-2 0  9996,2 52460  53.2142 174.4340 0002222  67.4466  12.6235 15.08872200  1306,6917.781999999997,95.436,541.184,538.11,0.0
52460.0,STARLINK-3865,PAYLOAD,2022-08-09 06:00:00,15.08826479,0.0002261,53.2141,172.9392,61.2542,30.4326,0.0010848,0.00017013,0.0,0 STARLINK-3865,1 52460U 22049K   22221.25001157  .00017013  00000-0  10848-2 0  9999,2 52460  53.2141 172.9392 0002261  61.2542  30.4326 15.08826479 14877,6917.922,95.438,541.351,538.2230000000002,0.0
52460.0,STARLINK-3865,PAYLOAD,2022-08-09 14:00:01,15.08833386,0.0002102,53.214,171.4414,64.3891,38.885,-0.0021099,-0.00033706,0.0,0 STARLINK-3865,1 52460U 22049K   22221.58334491 -.00033706  00000-0 -21099-2 0  9994,2 52460  53.2140 171.4414 0002102  64.3891  38.8850 15.08833386  1303,6917.901,95.438,541.22,538.311,0.0
52460.0,STARLINK-3865,PAYLOAD,2022-08-09 22:00:00,15.08830906,0.0002082,53.2142,169.9449,67.7626,47.0818,4.2358e-06,-2.21e-06,0.0,0 STARLINK-3865,1 52460U 22049K   22221.91667824 -.00000221  00000-0  42358-5 0  9999,2 52460  53.2142 169.9449 0002082  67.7626  47.0818 15.08830906 14973,6917.908,95.438,541.2130000000002,538.3330000000002,0.0
52460.0,STARLINK-3865,PAYLOAD,2022-08-10 14:00:01,15.08837952,0.0002075,53.214,166.9523,66.4218,71.5895,-0.00020235,-3.507e-05,0.0,0 STARLINK-3865,1 52460U 22049K   22222.58334491 -.00003507  00000-0 -20235-3 0  9993,2 52460  53.2140 166.9523 0002075  66.4218  71.5895 15.08837952  1304,6917.887,95.438,541.187,538.316,0.0
52460.0,STARLINK-3865,PAYLOAD,2022-08-10 22:00:00,15.08861033,0.0002099,53.2143,165.456,69.1652,80.4262,-0.0025519,-0.00040697,0.0,0 STARLINK-3865,1 52460U 22049K   22222.91667824 -.00040697  00000-0 -25519-2 0  9999,2 52460  53.2143 165.4560 0002099  69.1652  80.4262 15.08861033  1304,6917.816,95.436,541.133,538.229,0.0
52460.0,STARLINK-3865,PAYLOAD,2022-08-11 14:00:01,15.08824085,0.0002019,53.2142,162.4632,66.6707,106.1027,0.00013385,1.842e-05,0.0,0 STARLINK-3865,1 52460U 22049K   22223.58334491  .00001842  00000-0  13385-3 0  9990,2 52460  53.2142 162.4632 0002019  66.6707 106.1027 15.08824085  1306,6917.929,95.439,541.191,538.3969999999998,0.0
52460.0,STARLINK-3865,PAYLOAD,2022-08-11 22:00:00,15.08844528,0.0002092,53.2144,160.967,69.4087,114.9371,-0.00067078,-0.00010949,0.0,0 STARLINK-3865,1 52460U 22049K   22223.91667824 -.00010949  00000-0 -67078-3 0  9994,2 52460  53.2144 160.9670 0002092  69.4087 114.9371 15.08844528 15270,6917.8669999999975,95.437,541.179,538.284,0.0
